{
    "links": {
        "self": "http://www.neowsapp.com/rest/v1/neo/54053795?api_key=iIulBulltgU6a56xZRHN4H3l9WmuAYTsLGpBGhQ2"
    },
    "id": "54053795",
    "neo_reference_id": "54053795",
    "name": "(2020 RT1)",
    "designation": "2020 RT1",
    "nasa_jpl_url": "http://ssd.jpl.nasa.gov/sbdb.cgi?sstr=54053795",
    "absolute_magnitude_h": 24.455,
    "estimated_diameter": {
        "kilometers": {
            "estimated_diameter_min": 0.0341629194,
            "estimated_diameter_max": 0.0763906101
        },
        "meters": {
            "estimated_diameter_min": 34.1629194213,
            "estimated_diameter_max": 76.3906101359
        },
        "miles": {
            "estimated_diameter_min": 0.0212278474,
            "estimated_diameter_max": 0.0474669098
        },
        "feet": {
            "estimated_diameter_min": 112.0830725542,
            "estimated_diameter_max": 250.6253693582
        }
    },
    "is_potentially_hazardous_asteroid": false,
    "close_approach_data": [
        {
            "close_approach_date": "2013-08-20",
            "close_approach_date_full": "2013-Aug-20 21:49",
            "epoch_date_close_approach": 1377035340000,
            "relative_velocity": {
                "kilometers_per_second": "13.8332038994",
                "kilometers_per_hour": "49799.5340378227",
                "miles_per_hour": "30943.4938025571"
            },
            "miss_distance": {
                "astronomical": "0.31666448",
                "lunar": "123.18248272",
                "kilometers": "47372331.7126576",
                "miles": "29435801.96997088"
            },
            "orbiting_body": "Earth"
        },
        {
            "close_approach_date": "2020-09-11",
            "close_approach_date_full": "2020-Sep-11 03:12",
            "epoch_date_close_approach": 1599793920000,
            "relative_velocity": {
                "kilometers_per_second": "8.6465650936",
                "kilometers_per_hour": "31127.6343369661",
                "miles_per_hour": "19341.5014578776"
            },
            "miss_distance": {
                "astronomical": "0.047343837",
                "lunar": "18.416752593",
                "kilometers": "7082537.17282719",
                "miles": "4400884.527467622"
            },
            "orbiting_body": "Earth"
        },
        {
            "close_approach_date": "2027-10-03",
            "close_approach_date_full": "2027-Oct-03 04:40",
            "epoch_date_close_approach": 1822538400000,
            "relative_velocity": {
                "kilometers_per_second": "10.3581882366",
                "kilometers_per_hour": "37289.4776518658",
                "miles_per_hour": "23170.2312665163"
            },
            "miss_distance": {
                "astronomical": "0.2256495678",
                "lunar": "87.7776818742",
                "kilometers": "33756694.709300586",
                "miles": "20975437.4484006468"
            },
            "orbiting_body": "Earth"
        }
    ],
    "orbital_data": {
        "orbit_id": "6",
        "orbit_determination_date": "2020-11-10 05:19:18",
        "first_observation_date": "2020-09-09",
        "last_observation_date": "2020-09-17",
        "data_arc_in_days": 8,
        "observations_used": 64,
        "orbit_uncertainty": "7",
        "minimum_orbit_intersection": ".041875",
        "jupiter_tisserand_invariant": "4.551",
        "epoch_osculation": "2459000.5",
        "eccentricity": ".2861906373620961",
        "semi_major_axis": "1.458610778040258",
        "inclination": "14.23984901447639",
        "ascending_node_longitude": "349.1662574554065",
        "orbital_period": "643.4392572862205",
        "perihelion_distance": "1.041170029809694",
        "perihelion_argument": "14.16510063458523",
        "aphelion_distance": "1.876051526270823",
        "perihelion_time": "2459116.433359573857",
        "mean_anomaly": "295.1360536772113",
        "mean_motion": ".5594933724099174",
        "equinox": "J2000",
        "orbit_class": {
            "orbit_class_type": "AMO",
            "orbit_class_description": "Near-Earth asteroid orbits similar to that of 1221 Amor",
            "orbit_class_range": "1.017 AU < q (perihelion) < 1.3 AU"
        }
    },
    "is_sentry_object": false
}